start=new Date('2023-04-07T00:00:00.000Z').valueOf();
sats=[{"EPOCH":"2023-04-06T20:47:01.390848","LAUNCH_DATE":"2023-01-31","ECCENTRICITY":"0.00034550","TLE_LINE2":"2 55422  70.0000 266.4467 0003455 269.7857  90.2943 15.69927224 11379","MEAN_MOTION_DDOT":"0.0000000000000","EPHEMERIS_TYPE":"0","RCS_SIZE":"LARGE","PERIOD":"91.724","DECAY_DATE":null,"REF_FRAME":"TEME","MEAN_ELEMENT_THEORY":"SGP4","MEAN_ANOMALY":"90.2943","CENTER_NAME":"EARTH","MEAN_MOTION":"15.69927224","FILE":"3882049","TLE_LINE1":"1 55422U 23014AH  23096.86598832  .00004650  00000-0  40412-4 0  9997","SITE":"AFWTR","OBJECT_NAME":"STARLINK-5006","COUNTRY_CODE":"US","RA_OF_ASC_NODE":"266.4467","MEAN_MOTION_DOT":"0.00004650","SEMIMAJOR_AXIS":"6737.242","APOAPSIS":"361.435","INCLINATION":"70.0000","ARG_OF_PERICENTER":"269.7857","BSTAR":"0.00004041200000","CLASSIFICATION_TYPE":"U","NORAD_CAT_ID":"55422","PERIAPSIS":"356.779","GP_ID":"229646391","ELEMENT_SET_NO":"999","OBJECT_TYPE":"PAYLOAD","TIME_SYSTEM":"UTC","OBJECT_ID":"2023-014AH","REV_AT_EPOCH":"1137"},{"ELEMENT_SET_NO":"999","GP_ID":"229647141","OBJECT_TYPE":"PAYLOAD","PERIAPSIS":"356.724","REV_AT_EPOCH":"1137","OBJECT_ID":"2023-014AJ","TIME_SYSTEM":"UTC","SEMIMAJOR_AXIS":"6737.215","MEAN_MOTION_DOT":"0.00006836","INCLINATION":"70.0005","APOAPSIS":"361.436","OBJECT_NAME":"STARLINK-5068","SITE":"AFWTR","RA_OF_ASC_NODE":"266.4450","COUNTRY_CODE":"US","BSTAR":"0.00005854100000","CLASSIFICATION_TYPE":"U","NORAD_CAT_ID":"55423","ARG_OF_PERICENTER":"271.0607","REF_FRAME":"TEME","MEAN_ANOMALY":"89.0188","CENTER_NAME":"EARTH","MEAN_ELEMENT_THEORY":"SGP4","DECAY_DATE":null,"PERIOD":"91.723","TLE_LINE1":"1 55423U 23014AJ  23096.86556551  .00006836  00000-0  58541-4 0  9990","MEAN_MOTION":"15.69936778","FILE":"3882049","LAUNCH_DATE":"2023-01-31","EPOCH":"2023-04-06T20:46:24.860064","RCS_SIZE":"LARGE","TLE_LINE2":"2 55423  70.0005 266.4450 0003497 271.0607  89.0188 15.69936778 11373","ECCENTRICITY":"0.00034970","MEAN_MOTION_DDOT":"0.0000000000000","EPHEMERIS_TYPE":"0"},{"EPOCH":"2023-04-06T20:46:43.299552","LAUNCH_DATE":"2023-01-31","MEAN_MOTION_DDOT":"0.0000000000000","EPHEMERIS_TYPE":"0","ECCENTRICITY":"0.00041630","TLE_LINE2":"2 55425  69.9986 266.4470 0004163 267.9054  92.1665 15.69931426 11373","RCS_SIZE":"LARGE","DECAY_DATE":null,"PERIOD":"91.724","CENTER_NAME":"EARTH","MEAN_ANOMALY":"92.1665","MEAN_ELEMENT_THEORY":"SGP4","REF_FRAME":"TEME","FILE":"3882049","MEAN_MOTION":"15.69931426","TLE_LINE1":"1 55425U 23014AL  23096.86577893  .00003801  00000-0  33358-4 0  9992","COUNTRY_CODE":"US","RA_OF_ASC_NODE":"266.4470","SITE":"AFWTR","OBJECT_NAME":"STARLINK-5615","INCLINATION":"69.9986","APOAPSIS":"361.900","SEMIMAJOR_AXIS":"6737.230","MEAN_MOTION_DOT":"0.00003801","ARG_OF_PERICENTER":"267.9054","CLASSIFICATION_TYPE":"U","NORAD_CAT_ID":"55425","BSTAR":"0.00003335800000","PERIAPSIS":"356.290","OBJECT_TYPE":"PAYLOAD","ELEMENT_SET_NO":"999","GP_ID":"229647369","OBJECT_ID":"2023-014AL","TIME_SYSTEM":"UTC","REV_AT_EPOCH":"1137"},{"COUNTRY_CODE":"US","RA_OF_ASC_NODE":"266.4470","SITE":"AFWTR","OBJECT_NAME":"STARLINK-5638","INCLINATION":"69.9994","APOAPSIS":"361.571","SEMIMAJOR_AXIS":"6737.219","MEAN_MOTION_DOT":"0.00006203","ARG_OF_PERICENTER":"270.3371","CLASSIFICATION_TYPE":"U","NORAD_CAT_ID":"55426","BSTAR":"0.00005328900000","PERIAPSIS":"356.597","OBJECT_TYPE":"PAYLOAD","ELEMENT_SET_NO":"999","GP_ID":"229645653","OBJECT_ID":"2023-014AM","TIME_SYSTEM":"UTC","REV_AT_EPOCH":"1137","EPOCH":"2023-04-06T20:47:28.447008","LAUNCH_DATE":"2023-01-31","MEAN_MOTION_DDOT":"0.0000000000000","EPHEMERIS_TYPE":"0","ECCENTRICITY":"0.00036910","TLE_LINE2":"2 55426  69.9994 266.4470 0003691 270.3371  89.7402 15.69935365 11375","RCS_SIZE":"LARGE","DECAY_DATE":null,"PERIOD":"91.724","MEAN_ELEMENT_THEORY":"SGP4","MEAN_ANOMALY":"89.7402","CENTER_NAME":"EARTH","REF_FRAME":"TEME","FILE":"3882049","MEAN_MOTION":"15.69935365","TLE_LINE1":"1 55426U 23014AM  23096.86630147  .00006203  00000-0  53289-4 0  9999"},{"EPHEMERIS_TYPE":"0","MEAN_MOTION_DDOT":"0.0000000000000","TLE_LINE2":"2 55427  70.0014 266.8070 0003562 270.5926  89.4862 15.69935886 10416","ECCENTRICITY":"0.00035620","RCS_SIZE":"LARGE","EPOCH":"2023-04-06T17:43:21.767232","LAUNCH_DATE":"2023-01-31","FILE":"3881832","MEAN_MOTION":"15.69935886","TLE_LINE1":"1 55427U 23014AN  23096.73844638  .00005251  00000-0  45385-4 0  9998","DECAY_DATE":null,"PERIOD":"91.723","MEAN_ANOMALY":"89.4862","CENTER_NAME":"EARTH","MEAN_ELEMENT_THEORY":"SGP4","REF_FRAME":"TEME","ARG_OF_PERICENTER":"270.5926","NORAD_CAT_ID":"55427","CLASSIFICATION_TYPE":"U","BSTAR":"0.00004538500000","COUNTRY_CODE":"US","RA_OF_ASC_NODE":"266.8070","SITE":"AFWTR","OBJECT_NAME":"STARLINK-5073","INCLINATION":"70.0014","APOAPSIS":"361.482","SEMIMAJOR_AXIS":"6737.217","MEAN_MOTION_DOT":"0.00005251","OBJECT_ID":"2023-014AN","TIME_SYSTEM":"UTC","REV_AT_EPOCH":"1041","PERIAPSIS":"356.683","OBJECT_TYPE":"PAYLOAD","ELEMENT_SET_NO":"999","GP_ID":"229616044"},{"LAUNCH_DATE":"2023-01-31","EPOCH":"2023-04-06T20:47:47.036832","RCS_SIZE":"LARGE","MEAN_MOTION_DDOT":"0.0000000000000","EPHEMERIS_TYPE":"0","ECCENTRICITY":"0.00031550","TLE_LINE2":"2 55428  69.9998 266.4481 0003155 279.2279  80.8560 15.69927688 11379","MEAN_ANOMALY":"80.8560","CENTER_NAME":"EARTH","MEAN_ELEMENT_THEORY":"SGP4","REF_FRAME":"TEME","PERIOD":"91.724","DECAY_DATE":null,"TLE_LINE1":"1 55428U 23014AP  23096.86651663  .00001658  00000-0  15556-4 0  9991","FILE":"3882049","MEAN_MOTION":"15.69927688","APOAPSIS":"361.231","INCLINATION":"69.9998","MEAN_MOTION_DOT":"0.00001658","SEMIMAJOR_AXIS":"6737.241","RA_OF_ASC_NODE":"266.4481","COUNTRY_CODE":"US","OBJECT_NAME":"STARLINK-5064","SITE":"AFWTR","CLASSIFICATION_TYPE":"U","NORAD_CAT_ID":"55428","BSTAR":"0.00001555600000","ARG_OF_PERICENTER":"279.2279","OBJECT_TYPE":"PAYLOAD","GP_ID":"229646653","ELEMENT_SET_NO":"999","PERIAPSIS":"356.980","REV_AT_EPOCH":"1137","OBJECT_ID":"2023-014AP","TIME_SYSTEM":"UTC"},{"TLE_LINE1":"1 55429U 23014AQ  23096.86619776  .00004692  00000-0  40752-4 0  9998","FILE":"3882049","MEAN_MOTION":"15.69932324","MEAN_ANOMALY":"90.9566","MEAN_ELEMENT_THEORY":"SGP4","CENTER_NAME":"EARTH","REF_FRAME":"TEME","DECAY_DATE":null,"PERIOD":"91.724","RCS_SIZE":"LARGE","EPHEMERIS_TYPE":"0","MEAN_MOTION_DDOT":"0.0000000000000","ECCENTRICITY":"0.00037960","TLE_LINE2":"2 55429  69.9992 266.4458 0003796 269.1195  90.9566 15.69932324 11375","LAUNCH_DATE":"2023-01-31","EPOCH":"2023-04-06T20:47:19.486464","REV_AT_EPOCH":"1137","OBJECT_ID":"2023-014AQ","TIME_SYSTEM":"UTC","OBJECT_TYPE":"PAYLOAD","ELEMENT_SET_NO":"999","GP_ID":"229646881","PERIAPSIS":"356.535","CLASSIFICATION_TYPE":"U","NORAD_CAT_ID":"55429","BSTAR":"0.00004075200000","ARG_OF_PERICENTER":"269.1195","INCLINATION":"69.9992","APOAPSIS":"361.650","SEMIMAJOR_AXIS":"6737.228","MEAN_MOTION_DOT":"0.00004692","RA_OF_ASC_NODE":"266.4458","COUNTRY_CODE":"US","OBJECT_NAME":"STARLINK-5645","SITE":"AFWTR"},{"ARG_OF_PERICENTER":"269.9709","BSTAR":"-0.00002720200000","CLASSIFICATION_TYPE":"U","NORAD_CAT_ID":"55430","SITE":"AFWTR","OBJECT_NAME":"STARLINK-5642","COUNTRY_CODE":"US","RA_OF_ASC_NODE":"277.0306","MEAN_MOTION_DOT":"-0.00000418","SEMIMAJOR_AXIS":"6950.188","APOAPSIS":"574.530","INCLINATION":"69.9989","OBJECT_ID":"2023-014AR","TIME_SYSTEM":"UTC","REV_AT_EPOCH":"1016","PERIAPSIS":"569.576","GP_ID":"229616051","ELEMENT_SET_NO":"999","OBJECT_TYPE":"PAYLOAD","ECCENTRICITY":"0.00035640","TLE_LINE2":"2 55430  69.9989 277.0306 0003564 269.9709  90.1042 14.98331588 10168","MEAN_MOTION_DDOT":"0.0000000000000","EPHEMERIS_TYPE":"0","RCS_SIZE":"LARGE","EPOCH":"2023-04-06T18:00:36.354528","LAUNCH_DATE":"2023-01-31","MEAN_MOTION":"14.98331588","FILE":"3881832","TLE_LINE1":"1 55430U 23014AR  23096.75042077 -.00000418  00000-0 -27202-4 0  9991","PERIOD":"96.107","DECAY_DATE":null,"REF_FRAME":"TEME","CENTER_NAME":"EARTH","MEAN_ANOMALY":"90.1042","MEAN_ELEMENT_THEORY":"SGP4"},{"FILE":"3882049","MEAN_MOTION":"15.69929678","TLE_LINE1":"1 55431U 23014AS  23096.86640841  .00003300  00000-0  29199-4 0  9995","PERIOD":"91.724","DECAY_DATE":null,"CENTER_NAME":"EARTH","MEAN_ANOMALY":"87.1094","MEAN_ELEMENT_THEORY":"SGP4","REF_FRAME":"TEME","EPHEMERIS_TYPE":"0","MEAN_MOTION_DDOT":"0.0000000000000","ECCENTRICITY":"0.00040270","TLE_LINE2":"2 55431  70.0002 266.4495 0004027 272.9641  87.1094 15.69929678 11372","RCS_SIZE":"LARGE","EPOCH":"2023-04-06T20:47:37.686624","LAUNCH_DATE":"2023-01-31","TIME_SYSTEM":"UTC","OBJECT_ID":"2023-014AS","REV_AT_EPOCH":"1137","PERIAPSIS":"356.387","OBJECT_TYPE":"PAYLOAD","GP_ID":"229646392","ELEMENT_SET_NO":"999","ARG_OF_PERICENTER":"272.9641","CLASSIFICATION_TYPE":"U","NORAD_CAT_ID":"55431","BSTAR":"0.00002919900000","COUNTRY_CODE":"US","RA_OF_ASC_NODE":"266.4495","OBJECT_NAME":"STARLINK-5643","SITE":"AFWTR","APOAPSIS":"361.813","INCLINATION":"70.0002","MEAN_MOTION_DOT":"0.00003300","SEMIMAJOR_AXIS":"6737.235"},{"MEAN_MOTION_DDOT":"0.0000000000000","EPHEMERIS_TYPE":"0","ECCENTRICITY":"0.00031150","TLE_LINE2":"2 55432  69.9982 276.7163 0003115 269.2954  90.7849 14.99138438 11125","RCS_SIZE":"LARGE","EPOCH":"2023-04-06T21:20:43.240704","LAUNCH_DATE":"2023-01-31","FILE":"3882049","MEAN_MOTION":"14.99138438","TLE_LINE1":"1 55432U 23014AT  23096.88938936 -.00000053  00000-0  33171-5 0  9992","DECAY_DATE":null,"PERIOD":"96.055","MEAN_ANOMALY":"90.7849","CENTER_NAME":"EARTH","MEAN_ELEMENT_THEORY":"SGP4","REF_FRAME":"TEME","ARG_OF_PERICENTER":"269.2954","CLASSIFICATION_TYPE":"U","NORAD_CAT_ID":"55432","BSTAR":"0.00000331710000","RA_OF_ASC_NODE":"276.7163","COUNTRY_CODE":"US","SITE":"AFWTR","OBJECT_NAME":"STARLINK-5637","INCLINATION":"69.9982","APOAPSIS":"571.723","SEMIMAJOR_AXIS":"6947.694","MEAN_MOTION_DOT":"-0.00000053","TIME_SYSTEM":"UTC","OBJECT_ID":"2023-014AT","REV_AT_EPOCH":"1112","PERIAPSIS":"567.395","OBJECT_TYPE":"PAYLOAD","ELEMENT_SET_NO":"999","GP_ID":"229647142"}];
